<?xml version="1.0" encoding="utf-8" standalone="yes"?>
<rss version="2.0" xmlns:atom="http://www.w3.org/2005/Atom">
    <channel>
        <title>彗星 on MizarZ&#39;s Blog</title>
        <link>https://mizarzh.github.io/tags/%E5%BD%97%E6%98%9F/</link>
        <description>Recent content in 彗星 on MizarZ&#39;s Blog</description>
        <generator>Hugo -- gohugo.io</generator>
        <language>zh-cn</language>
        <lastBuildDate>Fri, 28 Feb 2020 17:57:43 +0800</lastBuildDate><atom:link href="https://mizarzh.github.io/tags/%E5%BD%97%E6%98%9F/index.xml" rel="self" type="application/rss+xml" /><item>
        <title>工作日志(C 2019 Y4 comet)</title>
        <link>https://mizarzh.github.io/p/2020/02/%E5%B7%A5%E4%BD%9C%E6%97%A5%E5%BF%97c-2019-y4-comet/</link>
        <pubDate>Fri, 28 Feb 2020 17:57:43 +0800</pubDate>
        
        <guid>https://mizarzh.github.io/p/2020/02/%E5%B7%A5%E4%BD%9C%E6%97%A5%E5%BF%97c-2019-y4-comet/</guid>
        <description>&lt;h2 id=&#34;思路&#34;&gt;思路：&lt;/h2&gt;
&lt;h3 id=&#34;模型&#34;&gt;模型：&lt;/h3&gt;
&lt;p&gt;$$m=V(1,0)+5\lg{\frac{r\Delta}{a^2}}-2.5\lg{\Phi(\alpha)}$$&lt;/p&gt;
&lt;p&gt;其中m为视星等，V(1,0)为绝对星等，r为该星体距离太阳的距离，$\Delta$为该星体距离地球的距离&lt;/p&gt;
&lt;!-- raw HTML omitted --&gt;
&lt;p&gt;轨道计算：先计算出椭圆轨道的参数，再映射到实际轨道当中&lt;/p&gt;
&lt;h3 id=&#34;数据&#34;&gt;数据&lt;/h3&gt;
&lt;p&gt;Orbital elements:
C/2019 Y4 (ATLAS)                                                        &lt;br&gt;
Epoch 2020 May 31.0 TT = JDT 2459000.5                                       &lt;br&gt;
T 2020 May 30.99149 TT                                  Bell                 &lt;br&gt;
q   0.2522871            (2000.0)            P               Q               &lt;br&gt;
z  +0.0052736      Peri.  177.54315     +0.48067371     +0.62763038          &lt;br&gt;
+/-0.0005749      Node   120.47328     -0.81617007     +0.57558163          &lt;br&gt;
e   0.9986695      Incl.   45.27974     -0.32065433     -0.52420025          &lt;br&gt;
From 171 observations 2019 Dec. 28-2020 Jan. 9, mean residual 0&amp;quot;.4.&lt;/p&gt;
&lt;p&gt;e (eccentricity)                : 0.9991890
q (perihelion distance)         : 0.2529910
i (inclination)                 : 45.39050
Ω (Longitude of ascending node) : 120.57800
ω (Argument of perihelion)      : 177.39850
L (Longitude of perihelion)     : 118.75041
B (Latitude of perihelion)      : 1.85172
T (Time of perihelion passage)  : 2459000.54440
P (Orbital period in years)     : 5509.68
Epoch                           : 2020 Feb 27
Family/Group:                   : Nearly isotropic&lt;/p&gt;
&lt;p&gt;02 January 2020 00:00 UTC&lt;/p&gt;
&lt;!-- raw HTML omitted --&gt;
&lt;h3 id=&#34;轨道根数&#34;&gt;轨道根数：&lt;/h3&gt;
&lt;p&gt;– semimajor axis a,
– eccentricity e,
– inclination i (or ι),
– longitude of the ascending node Ω,
– argument of the perihelion ω,
– time of the perihelion τ.
(或者true anomaly或者mean anomaly)&lt;/p&gt;
&lt;h3 id=&#34;作图&#34;&gt;作图&lt;/h3&gt;
&lt;p&gt;三维图：
&lt;a class=&#34;link&#34; href=&#34;https://matplotlib.org/tutorials/toolkits/mplot3d.html&#34;  target=&#34;_blank&#34; rel=&#34;noopener&#34;
    &gt;mplot3d&lt;/a&gt;&lt;/p&gt;
&lt;div class=&#34;highlight&#34;&gt;&lt;pre tabindex=&#34;0&#34; class=&#34;chroma&#34;&gt;&lt;code class=&#34;language-python&#34; data-lang=&#34;python&#34;&gt;&lt;span class=&#34;line&#34;&gt;&lt;span class=&#34;cl&#34;&gt;&lt;span class=&#34;kn&#34;&gt;from&lt;/span&gt; &lt;span class=&#34;nn&#34;&gt;mpl_toolkits.mplot3d&lt;/span&gt; &lt;span class=&#34;kn&#34;&gt;import&lt;/span&gt; &lt;span class=&#34;n&#34;&gt;Axes3D&lt;/span&gt;
&lt;/span&gt;&lt;/span&gt;&lt;span class=&#34;line&#34;&gt;&lt;span class=&#34;cl&#34;&gt;&lt;span class=&#34;kn&#34;&gt;import&lt;/span&gt; &lt;span class=&#34;nn&#34;&gt;matplotlib.pyplot&lt;/span&gt; &lt;span class=&#34;k&#34;&gt;as&lt;/span&gt; &lt;span class=&#34;nn&#34;&gt;plt&lt;/span&gt;
&lt;/span&gt;&lt;/span&gt;&lt;span class=&#34;line&#34;&gt;&lt;span class=&#34;cl&#34;&gt;&lt;span class=&#34;kn&#34;&gt;import&lt;/span&gt; &lt;span class=&#34;nn&#34;&gt;numpy&lt;/span&gt; &lt;span class=&#34;k&#34;&gt;as&lt;/span&gt; &lt;span class=&#34;nn&#34;&gt;np&lt;/span&gt;
&lt;/span&gt;&lt;/span&gt;&lt;span class=&#34;line&#34;&gt;&lt;span class=&#34;cl&#34;&gt;&lt;span class=&#34;n&#34;&gt;ax1&lt;/span&gt; &lt;span class=&#34;o&#34;&gt;=&lt;/span&gt; &lt;span class=&#34;n&#34;&gt;plt&lt;/span&gt;&lt;span class=&#34;o&#34;&gt;.&lt;/span&gt;&lt;span class=&#34;n&#34;&gt;axes&lt;/span&gt;&lt;span class=&#34;p&#34;&gt;(&lt;/span&gt;&lt;span class=&#34;n&#34;&gt;projection&lt;/span&gt;&lt;span class=&#34;o&#34;&gt;=&lt;/span&gt;&lt;span class=&#34;s2&#34;&gt;&amp;#34;3d&amp;#34;&lt;/span&gt;&lt;span class=&#34;p&#34;&gt;)&lt;/span&gt;
&lt;/span&gt;&lt;/span&gt;&lt;span class=&#34;line&#34;&gt;&lt;span class=&#34;cl&#34;&gt;
&lt;/span&gt;&lt;/span&gt;&lt;span class=&#34;line&#34;&gt;&lt;span class=&#34;cl&#34;&gt;&lt;span class=&#34;n&#34;&gt;ax1&lt;/span&gt;&lt;span class=&#34;o&#34;&gt;.&lt;/span&gt;&lt;span class=&#34;n&#34;&gt;set_xlim3d&lt;/span&gt;&lt;span class=&#34;p&#34;&gt;(&lt;/span&gt;&lt;span class=&#34;o&#34;&gt;-&lt;/span&gt;&lt;span class=&#34;n&#34;&gt;lim&lt;/span&gt;&lt;span class=&#34;p&#34;&gt;,&lt;/span&gt;&lt;span class=&#34;n&#34;&gt;lim&lt;/span&gt;&lt;span class=&#34;p&#34;&gt;)&lt;/span&gt;
&lt;/span&gt;&lt;/span&gt;&lt;span class=&#34;line&#34;&gt;&lt;span class=&#34;cl&#34;&gt;&lt;span class=&#34;n&#34;&gt;ax1&lt;/span&gt;&lt;span class=&#34;o&#34;&gt;.&lt;/span&gt;&lt;span class=&#34;n&#34;&gt;set_ylim3d&lt;/span&gt;&lt;span class=&#34;p&#34;&gt;(&lt;/span&gt;&lt;span class=&#34;o&#34;&gt;-&lt;/span&gt;&lt;span class=&#34;n&#34;&gt;lim&lt;/span&gt;&lt;span class=&#34;p&#34;&gt;,&lt;/span&gt;&lt;span class=&#34;n&#34;&gt;lim&lt;/span&gt;&lt;span class=&#34;p&#34;&gt;)&lt;/span&gt;
&lt;/span&gt;&lt;/span&gt;&lt;span class=&#34;line&#34;&gt;&lt;span class=&#34;cl&#34;&gt;&lt;span class=&#34;n&#34;&gt;ax1&lt;/span&gt;&lt;span class=&#34;o&#34;&gt;.&lt;/span&gt;&lt;span class=&#34;n&#34;&gt;set_zlim3d&lt;/span&gt;&lt;span class=&#34;p&#34;&gt;(&lt;/span&gt;&lt;span class=&#34;o&#34;&gt;-&lt;/span&gt;&lt;span class=&#34;n&#34;&gt;lim&lt;/span&gt;&lt;span class=&#34;p&#34;&gt;,&lt;/span&gt;&lt;span class=&#34;n&#34;&gt;lim&lt;/span&gt;&lt;span class=&#34;p&#34;&gt;)&lt;/span&gt;
&lt;/span&gt;&lt;/span&gt;&lt;span class=&#34;line&#34;&gt;&lt;span class=&#34;cl&#34;&gt;
&lt;/span&gt;&lt;/span&gt;&lt;span class=&#34;line&#34;&gt;&lt;span class=&#34;cl&#34;&gt;&lt;span class=&#34;n&#34;&gt;ax1&lt;/span&gt;&lt;span class=&#34;o&#34;&gt;.&lt;/span&gt;&lt;span class=&#34;n&#34;&gt;plot3D&lt;/span&gt;&lt;span class=&#34;p&#34;&gt;(&lt;/span&gt;&lt;span class=&#34;n&#34;&gt;x&lt;/span&gt;&lt;span class=&#34;p&#34;&gt;,&lt;/span&gt;&lt;span class=&#34;n&#34;&gt;y&lt;/span&gt;&lt;span class=&#34;p&#34;&gt;,&lt;/span&gt;&lt;span class=&#34;n&#34;&gt;z&lt;/span&gt;&lt;span class=&#34;p&#34;&gt;)&lt;/span&gt;
&lt;/span&gt;&lt;/span&gt;&lt;span class=&#34;line&#34;&gt;&lt;span class=&#34;cl&#34;&gt;&lt;span class=&#34;n&#34;&gt;plt&lt;/span&gt;&lt;span class=&#34;o&#34;&gt;.&lt;/span&gt;&lt;span class=&#34;n&#34;&gt;show&lt;/span&gt;&lt;span class=&#34;p&#34;&gt;()&lt;/span&gt;
&lt;/span&gt;&lt;/span&gt;&lt;/code&gt;&lt;/pre&gt;&lt;/div&gt;&lt;p&gt;在jupyter notebook上：&lt;/p&gt;
&lt;div class=&#34;highlight&#34;&gt;&lt;pre tabindex=&#34;0&#34; class=&#34;chroma&#34;&gt;&lt;code class=&#34;language-python&#34; data-lang=&#34;python&#34;&gt;&lt;span class=&#34;line&#34;&gt;&lt;span class=&#34;cl&#34;&gt;&lt;span class=&#34;o&#34;&gt;%&lt;/span&gt;&lt;span class=&#34;n&#34;&gt;matplotlib&lt;/span&gt; &lt;span class=&#34;n&#34;&gt;notebook&lt;/span&gt;
&lt;/span&gt;&lt;/span&gt;&lt;span class=&#34;line&#34;&gt;&lt;span class=&#34;cl&#34;&gt;&lt;span class=&#34;n&#34;&gt;ax1&lt;/span&gt;&lt;span class=&#34;o&#34;&gt;.&lt;/span&gt;&lt;span class=&#34;n&#34;&gt;mouse_init&lt;/span&gt;&lt;span class=&#34;p&#34;&gt;()&lt;/span&gt; &lt;span class=&#34;c1&#34;&gt;#使用鼠标操控&lt;/span&gt;
&lt;/span&gt;&lt;/span&gt;&lt;span class=&#34;line&#34;&gt;&lt;span class=&#34;cl&#34;&gt;&lt;span class=&#34;n&#34;&gt;ax1&lt;/span&gt;&lt;span class=&#34;o&#34;&gt;.&lt;/span&gt;&lt;span class=&#34;n&#34;&gt;view_init&lt;/span&gt;&lt;span class=&#34;p&#34;&gt;(&lt;/span&gt;&lt;span class=&#34;n&#34;&gt;elev&lt;/span&gt;&lt;span class=&#34;o&#34;&gt;=&lt;/span&gt;&lt;span class=&#34;n&#34;&gt;number&lt;/span&gt;&lt;span class=&#34;p&#34;&gt;,&lt;/span&gt; &lt;span class=&#34;n&#34;&gt;azim&lt;/span&gt;&lt;span class=&#34;o&#34;&gt;=&lt;/span&gt;&lt;span class=&#34;n&#34;&gt;number&lt;/span&gt;&lt;span class=&#34;p&#34;&gt;)&lt;/span&gt; &lt;span class=&#34;c1&#34;&gt;#调整视角&lt;/span&gt;
&lt;/span&gt;&lt;/span&gt;&lt;/code&gt;&lt;/pre&gt;&lt;/div&gt;&lt;p&gt;交互式plotly&lt;/p&gt;
&lt;h3 id=&#34;天文相关&#34;&gt;天文相关&lt;/h3&gt;
&lt;p&gt;poliastro
问题：使用Orbit.from_classical时的ecc过大，导致数据精度不足（或者是使得运行时间过长），但是使用直接绘图就没有这个问题
&lt;a class=&#34;link&#34; href=&#34;https://poliastro.readthedocs.io/en/latest&#34;  target=&#34;_blank&#34; rel=&#34;noopener&#34;
    &gt;poliastro&lt;/a&gt;&lt;/p&gt;
&lt;p&gt;astropy&lt;/p&gt;
&lt;div class=&#34;highlight&#34;&gt;&lt;pre tabindex=&#34;0&#34; class=&#34;chroma&#34;&gt;&lt;code class=&#34;language-python&#34; data-lang=&#34;python&#34;&gt;&lt;span class=&#34;line&#34;&gt;&lt;span class=&#34;cl&#34;&gt;&lt;span class=&#34;kn&#34;&gt;from&lt;/span&gt; &lt;span class=&#34;nn&#34;&gt;astropy&lt;/span&gt; &lt;span class=&#34;kn&#34;&gt;import&lt;/span&gt; &lt;span class=&#34;n&#34;&gt;units&lt;/span&gt; &lt;span class=&#34;k&#34;&gt;as&lt;/span&gt; &lt;span class=&#34;n&#34;&gt;u&lt;/span&gt;
&lt;/span&gt;&lt;/span&gt;&lt;span class=&#34;line&#34;&gt;&lt;span class=&#34;cl&#34;&gt;&lt;span class=&#34;kn&#34;&gt;from&lt;/span&gt; &lt;span class=&#34;nn&#34;&gt;astropy.coordinates&lt;/span&gt; &lt;span class=&#34;kn&#34;&gt;import&lt;/span&gt; &lt;span class=&#34;n&#34;&gt;CartesianRepresentation&lt;/span&gt;
